{
  "norad_id": 57992,
  "name": "STARLINK-30534",
  "history": [
    {
      "epoch": "2026-03-28T22:33:51.473376Z",
      "apogee_km": 483.310257070586,
      "perigee_km": 482.7078484471531,
      "latitude_deg": -4.811143161399221e-05,
      "longitude_deg": 153.2451575546095,
      "height_km": 482.87637792204663,
      "semi_major_axis_km": 6861.146052758869,
      "eccentricity": 4.39e-05,
      "inclination_deg": 43.001,
      "raan_deg": 318.0631,
      "arg_perigee_deg": 252.3353,
      "mean_anomaly_deg": 107.745,
      "mean_motion_rev_day": 15.27593373
    },
    {
      "epoch": "2026-03-29T23:40:21.559296Z",
      "apogee_km": 484.0385313995812,
      "perigee_km": 482.1064148119531,
      "latitude_deg": 1.970885524461267e-05,
      "longitude_deg": 129.68170876602323,
      "height_km": 482.7201407163045,
      "semi_major_axis_km": 6861.209473105767,
      "eccentricity": 0.0001408,
      "inclination_deg": 43.0024,
      "raan_deg": 312.1561,
      "arg_perigee_deg": 277.6926,
      "mean_anomaly_deg": 82.3766,
      "mean_motion_rev_day": 15.27572193
    },
    {
      "epoch": "2026-03-29T23:40:21.560160Z",
      "apogee_km": 484.0386686237698,
      "perigee_km": 482.10627758776445,
      "latitude_deg": 2.1279211067931468e-05,
      "longitude_deg": 129.68180683070423,
      "height_km": 482.72012234922425,
      "semi_major_axis_km": 6861.209473105767,
      "eccentricity": 0.00014082,
      "inclination_deg": 43.0024,
      "raan_deg": 312.1562,
      "arg_perigee_deg": 277.6926,
      "mean_anomaly_deg": 82.3766,
      "mean_motion_rev_day": 15.27572193
    },
    {
      "epoch": "2026-03-30T07:31:08.381280Z",
      "apogee_km": 484.06981178073056,
      "perigee_km": 482.01969067346454,
      "latitude_deg": 1.1699987917773886e-05,
      "longitude_deg": 9.818471284324016,
      "height_km": 482.7503989450308,
      "semi_major_axis_km": 6861.181751227097,
      "eccentricity": 0.0001494,
      "inclination_deg": 43.002,
      "raan_deg": 310.3102,
      "arg_perigee_deg": 273.9919,
      "mean_anomaly_deg": 86.0762,
      "mean_motion_rev_day": 15.27581451
    },
    {
      "epoch": "2026-03-30T21:38:34.063296Z",
      "apogee_km": 484.2928522915972,
      "perigee_km": 481.9777217965029,
      "latitude_deg": 1.2793329823598213e-05,
      "longitude_deg": 154.05832085342237,
      "height_km": 482.9989920817323,
      "semi_major_axis_km": 6861.272287044049,
      "eccentricity": 0.00016871,
      "inclination_deg": 42.9997,
      "raan_deg": 306.9871,
      "arg_perigee_deg": 265.6987,
      "mean_anomaly_deg": 94.3672,
      "mean_motion_rev_day": 15.27551216
    },
    {
      "epoch": "2026-03-31T21:10:56.051616Z",
      "apogee_km": 484.27996644570976,
      "perigee_km": 481.81542890230594,
      "latitude_deg": 1.0466186599745637e-05,
      "longitude_deg": 154.46037122462485,
      "height_km": 482.65082336807154,
      "semi_major_axis_km": 6861.184697674007,
      "eccentricity": 0.0001796,
      "inclination_deg": 43.0017,
      "raan_deg": 301.4475,
      "arg_perigee_deg": 278.1218,
      "mean_anomaly_deg": 81.943,
      "mean_motion_rev_day": 15.27580467
    },
    {
      "epoch": "2026-04-01T20:43:15.669120Z",
      "apogee_km": 484.1458214178165,
      "perigee_km": 481.8199017847337,
      "latitude_deg": -2.614071163695142e-05,
      "longitude_deg": 154.8732903617906,
      "height_km": 482.77749032782407,
      "semi_major_axis_km": 6861.119861601275,
      "eccentricity": 0.0001695,
      "inclination_deg": 42.999,
      "raan_deg": 295.9089,
      "arg_perigee_deg": 269.1229,
      "mean_anomaly_deg": 90.9428,
      "mean_motion_rev_day": 15.2760212
    },
    {
      "epoch": "2026-04-02T13:58:58.120032Z",
      "apogee_km": 484.1287620438716,
      "perigee_km": 481.8466147500176,
      "latitude_deg": -6.760021435818729e-06,
      "longitude_deg": -108.82438379780861,
      "height_km": 482.7989241504538,
      "semi_major_axis_km": 6861.124688396944,
      "eccentricity": 0.00016631,
      "inclination_deg": 42.9987,
      "raan_deg": 291.847,
      "arg_perigee_deg": 268.2688,
      "mean_anomaly_deg": 91.7973,
      "mean_motion_rev_day": 15.27600508
    },
    {
      "epoch": "2026-04-03T05:40:31.139328Z",
      "apogee_km": 484.1177196204562,
      "perigee_km": 481.8398291833546,
      "latitude_deg": -2.5677641923103128e-05,
      "longitude_deg": 11.450247605314933,
      "height_km": 482.76838831097285,
      "semi_major_axis_km": 6861.115774401905,
      "eccentricity": 0.000166,
      "inclination_deg": 42.9986,
      "raan_deg": 288.1537,
      "arg_perigee_deg": 269.3531,
      "mean_anomaly_deg": 90.713,
      "mean_motion_rev_day": 15.27603485
    },
    {
      "epoch": "2026-04-04T20:54:26.109792Z",
      "apogee_km": 484.5381755418557,
      "perigee_km": 481.5370977557859,
      "latitude_deg": 8.370654179554138e-06,
      "longitude_deg": 132.126641061397,
      "height_km": 482.6308256117061,
      "semi_major_axis_km": 6861.1746366488205,
      "eccentricity": 0.0002187,
      "inclination_deg": 43.0018,
      "raan_deg": 278.9203,
      "arg_perigee_deg": 277.0564,
      "mean_anomaly_deg": 83.0039,
      "mean_motion_rev_day": 15.27583827
    },
    {
      "epoch": "2026-04-05T12:36:00.956448Z",
      "apogee_km": 484.42234583770914,
      "perigee_km": 481.7474298725101,
      "latitude_deg": 5.752996505758129e-05,
      "longitude_deg": -107.60459112091684,
      "height_km": 482.68613074648744,
      "semi_major_axis_km": 6861.221887855109,
      "eccentricity": 0.00019493,
      "inclination_deg": 43.002,
      "raan_deg": 275.2287,
      "arg_perigee_deg": 277.567,
      "mean_anomaly_deg": 82.4961,
      "mean_motion_rev_day": 15.27568047
    }
  ]
}